[{"OBJECT_NAME":"STARLINK-31968","OBJECT_ID":"2024-106F","EPOCH":"2026-03-09T22:27:55.725696","MEAN_MOTION":15.27564726,"ECCENTRICITY":0.00011388,"INCLINATION":43.0006,"RA_OF_ASC_NODE":330.8642,"ARG_OF_PERICENTER":259.8093,"MEAN_ANOMALY":100.263,"EPHEMERIS_TYPE":0,"CLASSIFICATION_TYPE":"U","NORAD_CAT_ID":59927,"ELEMENT_SET_NO":999,"REV_AT_EPOCH":10061,"BSTAR":-2.2937229e-5,"MEAN_MOTION_DOT":-8.93e-6,"MEAN_MOTION_DDOT":0},{"OBJECT_NAME":"CZ-4C R\/B","OBJECT_ID":"2022-039B","EPOCH":"2026-03-09T15:51:32.485824","MEAN_MOTION":15.03008334,"ECCENTRICITY":0.0113659,"INCLINATION":98.2525,"RA_OF_ASC_NODE":105.9247,"ARG_OF_PERICENTER":45.8852,"MEAN_ANOMALY":315.1654,"EPHEMERIS_TYPE":0,"CLASSIFICATION_TYPE":"U","NORAD_CAT_ID":52258,"ELEMENT_SET_NO":999,"REV_AT_EPOCH":21291,"BSTAR":0.00022979194,"MEAN_MOTION_DOT":3.483e-5,"MEAN_MOTION_DDOT":0}]
